FLOCK 4BE-28            
1 60519U 24149BD  26063.46167790  .00035278  00000+0  86251-3 0  9997
2 60519  97.3792 147.9160 0003512 308.8026  51.2906 15.40722978 86299
FLOCK 4BE-35            
1 60558U 24149CU  26063.45589941  .00137970  00000+0  31293-2 0  9992
2 60558  97.3800 146.6320 0004537 276.0787  83.9944 15.42530285 86197
FLOCK 4BE-5             
1 60559U 24149CV  26063.45324697  .00032212  00000+0  89644-3 0  9995
2 60559  97.3889 146.6906 0002518 317.6119  42.4930 15.36758194 86170
FLOCK 4BE-12            
1 60560U 24149CW  26063.22880831  .00149762  00000+0  30835-2 0  9995
2 60560  97.3773 147.1069 0005680 279.8944  80.1663 15.45354690 86229
FLOCK 4BE-3             
1 60561U 24149CX  26063.45994966  .00027524  00000+0  73754-3 0  9995
2 60561  97.3752 146.6212 0003141 304.2142  55.8805 15.37964716 86228
FLOCK 4BE-19            
1 60563U 24149CZ  26063.27901750  .00032408  00000+0  81025-3 0  9993
2 60563  97.3791 147.5241 0003165 310.8312  49.2659 15.40060987 86251
PELICAN-2               
1 62631U 25009Y   26063.20405221  .00071333  00000+0  17565-2 0  9999
2 62631  97.4036 153.4417 0006748 221.6640 138.4092 15.40310721 63392
PELICAN-3               
1 65315U 25188A   26063.15439995  .00004827  00000+0  12072-3 0  9991
2 65315  97.2252 140.7668 0002627 213.2891 146.8191 15.40590716 29148
PELICAN-4               
1 65316U 25188B   26063.17002456  .00015176  00000+0  37428-3 0  9993
2 65316  97.2337 140.8795 0004634 102.6575 257.5190 15.40623414 29146
